{
  "type": "FeatureCollection",
  "features": [
    {
      "type": "Feature",
      "properties": {
        "norad_id": 32225,
        "name": "FENGYUN 1C DEB",
        "group": "fengyun-1c-debris",
        "lat": 3.0305852898336516,
        "lon": -139.2011010363928,
        "alt_km": 801.5619272348058,
        "timestamp": "2025-12-17T13:48:37.840150+00:00",
        "meta_object_name": "FENGYUN 1C DEB",
        "meta_object_id": "1999-025CVX",
        "meta_epoch": "2025-12-14T08:30:03.848544",
        "meta_mean_motion": 14.13046821,
        "meta_eccentricity": 0.00717754,
        "meta_inclination": 99.0923,
        "meta_ra_of_asc_node": 37.0425,
        "meta_arg_of_pericenter": 201.9609,
        "meta_mean_anomaly": 157.8482,
        "meta_ephemeris_type": 0,
        "meta_classification_type": "U",
        "meta_norad_cat_id": 32225,
        "meta_element_set_no": 999,
        "meta_rev_at_epoch": 68139,
        "meta_bstar": 0.0002902606,
        "meta_mean_motion_dot": 5.09e-06,
        "meta_mean_motion_ddot": 0,
        "tle_line1": "1 32225U 99025CVX 25348.35421121  .00000509  00000+0  29026-3 0  9995",
        "tle_line2": "2 32225  99.0923  37.0425 0071775 201.9609 157.8482 14.13046821681395"
      },
      "geometry": {
        "type": "Point",
        "coordinates": [
          -139.2011010363928,
          3.0305852898336516
        ]
      }
    },
    {
      "type": "Feature",
      "properties": {
        "norad_id": 32230,
        "name": "FENGYUN 1C DEB",
        "group": "fengyun-1c-debris",
        "lat": 40.42767943357482,
        "lon": 133.8474241960096,
        "alt_km": 671.91583716061,
        "timestamp": "2025-12-17T13:48:37.840160+00:00",
        "meta_object_name": "FENGYUN 1C DEB",
        "meta_object_id": "1999-025CWC",
        "meta_epoch": "2025-12-13T09:10:06.590208",
        "meta_mean_motion": 14.56150163,
        "meta_eccentricity": 0.005055,
        "meta_inclination": 98.8706,
        "meta_ra_of_asc_node": 137.0363,
        "meta_arg_of_pericenter": 87.2509,
        "meta_mean_anomaly": 303.0071,
        "meta_ephemeris_type": 0,
        "meta_classification_type": "U",
        "meta_norad_cat_id": 32230,
        "meta_element_set_no": 999,
        "meta_rev_at_epoch": 60679,
        "meta_bstar": 0.0050290882,
        "meta_mean_motion_dot": 0.00022605,
        "meta_mean_motion_ddot": 0,
        "tle_line1": "1 32230U 99025CWC 25347.38202072  .00022605  00000+0  50291-2 0  9993",
        "tle_line2": "2 32230  98.8706 137.0363 0050550  87.2509 303.0071 14.56150163606793"
      },
      "geometry": {
        "type": "Point",
        "coordinates": [
          133.8474241960096,
          40.42767943357482
        ]
      }
    },
    {
      "type": "Feature",
      "properties": {
        "norad_id": 32234,
        "name": "FENGYUN 1C DEB",
        "group": "fengyun-1c-debris",
        "lat": 9.438377248133088,
        "lon": 22.488517601669276,
        "alt_km": 1004.2571593432986,
        "timestamp": "2025-12-17T13:48:37.840169+00:00",
        "meta_object_name": "FENGYUN 1C DEB",
        "meta_object_id": "1999-025CWG",
        "meta_epoch": "2025-12-14T12:38:46.497984",
        "meta_mean_motion": 13.9413283,
        "meta_eccentricity": 0.01374559,
        "meta_inclination": 98.529,
        "meta_ra_of_asc_node": 198.2432,
        "meta_arg_of_pericenter": 331.2039,
        "meta_mean_anomaly": 28.1585,
        "meta_ephemeris_type": 0,
        "meta_classification_type": "U",
        "meta_norad_cat_id": 32234,
        "meta_element_set_no": 999,
        "meta_rev_at_epoch": 93234,
        "meta_bstar": 0.0014985343,
        "meta_mean_motion_dot": 2.108e-05,
        "meta_mean_motion_ddot": 0,
        "tle_line1": "1 32234U 99025CWG 25348.52692706  .00002108  00000+0  14985-2 0  9997",
        "tle_line2": "2 32234  98.5290 198.2432 0137455 331.2039  28.1585 13.94132830932348"
      },
      "geometry": {
        "type": "Point",
        "coordinates": [
          22.488517601669276,
          9.438377248133088
        ]
      }
    },
    {
      "type": "Feature",
      "properties": {
        "norad_id": 32241,
        "name": "FENGYUN 1C DEB",
        "group": "fengyun-1c-debris",
        "lat": 80.33598965552194,
        "lon": -48.62622433132794,
        "alt_km": 844.3628055974632,
        "timestamp": "2025-12-17T13:48:37.840179+00:00",
        "meta_object_name": "FENGYUN 1C DEB",
        "meta_object_id": "1999-025CWP",
        "meta_epoch": "2025-12-17T08:21:13.096800",
        "meta_mean_motion": 14.28778702,
        "meta_eccentricity": 0.01465119,
        "meta_inclination": 99.0771,
        "meta_ra_of_asc_node": 20.9898,
        "meta_arg_of_pericenter": 210.2379,
        "meta_mean_anomaly": 149.0287,
        "meta_ephemeris_type": 0,
        "meta_classification_type": "U",
        "meta_norad_cat_id": 32241,
        "meta_element_set_no": 999,
        "meta_rev_at_epoch": 93889,
        "meta_bstar": 0.0010923987,
        "meta_mean_motion_dot": 3.039e-05,
        "meta_mean_motion_ddot": 0,
        "tle_line1": "1 32241U 99025CWP 25351.34806825  .00003039  00000+0  10924-2 0  9991",
        "tle_line2": "2 32241  99.0771  20.9898 0146511 210.2379 149.0287 14.28778702938899"
      },
      "geometry": {
        "type": "Point",
        "coordinates": [
          -48.62622433132794,
          80.33598965552194
        ]
      }
    },
    {
      "type": "Feature",
      "properties": {
        "norad_id": 32243,
        "name": "FENGYUN 1C DEB",
        "group": "fengyun-1c-debris",
        "lat": -28.574287965166594,
        "lon": 20.318160912933454,
        "alt_km": 1027.8834099988635,
        "timestamp": "2025-12-17T13:48:37.840189+00:00",
        "meta_object_name": "FENGYUN 1C DEB",
        "meta_object_id": "1999-025CWR",
        "meta_epoch": "2025-12-16T19:08:46.301568",
        "meta_mean_motion": 14.04634248,
        "meta_eccentricity": 0.02692873,
        "meta_inclination": 98.2679,
        "meta_ra_of_asc_node": 15.0665,
        "meta_arg_of_pericenter": 112.0478,
        "meta_mean_anomaly": 250.9525,
        "meta_ephemeris_type": 0,
        "meta_classification_type": "U",
        "meta_norad_cat_id": 32243,
        "meta_element_set_no": 999,
        "meta_rev_at_epoch": 93645,
        "meta_bstar": 0.0016264779,
        "meta_mean_motion_dot": 3.562e-05,
        "meta_mean_motion_ddot": 0,
        "tle_line1": "1 32243U 99025CWR 25350.79775812  .00003562  00000+0  16265-2 0  9997",
        "tle_line2": "2 32243  98.2679  15.0665 0269287 112.0478 250.9525 14.04634248936458"
      },
      "geometry": {
        "type": "Point",
        "coordinates": [
          20.318160912933454,
          -28.574287965166594
        ]
      }
    },
    {
      "type": "Feature",
      "properties": {
        "norad_id": 32245,
        "name": "FENGYUN 1C DEB",
        "group": "fengyun-1c-debris",
        "lat": 60.86867129710999,
        "lon": 172.11546554536812,
        "alt_km": 638.5676188266052,
        "timestamp": "2025-12-17T13:48:37.840201+00:00",
        "meta_object_name": "FENGYUN 1C DEB",
        "meta_object_id": "1999-025CWT",
        "meta_epoch": "2025-12-16T06:38:31.473888",
        "meta_mean_motion": 14.77030772,
        "meta_eccentricity": 0.0097149,
        "meta_inclination": 98.6547,
        "meta_ra_of_asc_node": 186.5841,
        "meta_arg_of_pericenter": 330.7675,
        "meta_mean_anomaly": 28.8116,
        "meta_ephemeris_type": 0,
        "meta_classification_type": "U",
        "meta_norad_cat_id": 32245,
        "meta_element_set_no": 999,
        "meta_rev_at_epoch": 66158,
        "meta_bstar": 0.00082943136,
        "meta_mean_motion_dot": 6.263e-05,
        "meta_mean_motion_ddot": 0,
        "tle_line1": "1 32245U 99025CWT 25350.27675317  .00006263  00000+0  82943-3 0  9999",
        "tle_line2": "2 32245  98.6547 186.5841 0097149 330.7675  28.8116 14.77030772661581"
      },
      "geometry": {
        "type": "Point",
        "coordinates": [
          172.11546554536812,
          60.86867129710999
        ]
      }
    },
    {
      "type": "Feature",
      "properties": {
        "norad_id": 32304,
        "name": "FENGYUN 1C DEB",
        "group": "fengyun-1c-debris",
        "lat": -37.2577581304055,
        "lon": -46.07138192018495,
        "alt_km": 741.4366418680429,
        "timestamp": "2025-12-17T13:48:37.840211+00:00",
        "meta_object_name": "FENGYUN 1C DEB",
        "meta_object_id": "1999-025CWV",
        "meta_epoch": "2025-12-03T02:19:20.087328",
        "meta_mean_motion": 14.50391603,
        "meta_eccentricity": 0.00495576,
        "meta_inclination": 99.3949,
        "meta_ra_of_asc_node": 290.5539,
        "meta_arg_of_pericenter": 255.7789,
        "meta_mean_anomaly": 103.7894,
        "meta_ephemeris_type": 0,
        "meta_classification_type": "U",
        "meta_norad_cat_id": 32304,
        "meta_element_set_no": 999,
        "meta_rev_at_epoch": 56133,
        "meta_bstar": 0.0019806873,
        "meta_mean_motion_dot": 7.809e-05,
        "meta_mean_motion_ddot": 0,
        "tle_line1": "1 32304U 99025CWV 25337.09676027  .00007809  00000+0  19807-2 0  9994",
        "tle_line2": "2 32304  99.3949 290.5539 0049557 255.7789 103.7894 14.50391603561335"
      },
      "geometry": {
        "type": "Point",
        "coordinates": [
          -46.07138192018495,
          -37.2577581304055
        ]
      }
    }
  ]
}